[{"OBJECT_NAME":"ONEWEB-0421","OBJECT_ID":"2021-132AD","EPOCH":"2026-03-20T03:53:46.995072","MEAN_MOTION":13.18686402,"ECCENTRICITY":0.00015538,"INCLINATION":87.9251,"RA_OF_ASC_NODE":353.1429,"ARG_OF_PERICENTER":83.8881,"MEAN_ANOMALY":276.2428,"EPHEMERIS_TYPE":0,"CLASSIFICATION_TYPE":"U","NORAD_CAT_ID":50496,"ELEMENT_SET_NO":999,"REV_AT_EPOCH":20988,"BSTAR":0.00015599708,"MEAN_MOTION_DOT":7.4e-7,"MEAN_MOTION_DDOT":0},{"OBJECT_NAME":"ONEWEB-0424","OBJECT_ID":"2021-132AE","EPOCH":"2026-03-20T06:35:17.950848","MEAN_MOTION":13.18687119,"ECCENTRICITY":0.00020369,"INCLINATION":87.9251,"RA_OF_ASC_NODE":353.1168,"ARG_OF_PERICENTER":70.7101,"MEAN_ANOMALY":289.4251,"EPHEMERIS_TYPE":0,"CLASSIFICATION_TYPE":"U","NORAD_CAT_ID":50497,"ELEMENT_SET_NO":999,"REV_AT_EPOCH":20992,"BSTAR":6.0663724e-5,"MEAN_MOTION_DOT":3.7e-7,"MEAN_MOTION_DDOT":0},{"OBJECT_NAME":"ONEWEB-0426","OBJECT_ID":"2021-132AF","EPOCH":"2026-03-20T05:38:16.499616","MEAN_MOTION":13.18685259,"ECCENTRICITY":0.0001089,"INCLINATION":87.9253,"RA_OF_ASC_NODE":353.1165,"ARG_OF_PERICENTER":74.9929,"MEAN_ANOMALY":285.1324,"EPHEMERIS_TYPE":0,"CLASSIFICATION_TYPE":"U","NORAD_CAT_ID":50498,"ELEMENT_SET_NO":999,"REV_AT_EPOCH":20986,"BSTAR":0.00013707957,"MEAN_MOTION_DOT":6.7e-7,"MEAN_MOTION_DDOT":0},{"OBJECT_NAME":"ONEWEB-0427","OBJECT_ID":"2021-132AG","EPOCH":"2026-03-20T06:32:54.289248","MEAN_MOTION":13.18685659,"ECCENTRICITY":0.00016305,"INCLINATION":87.9253,"RA_OF_ASC_NODE":353.0957,"ARG_OF_PERICENTER":70.7836,"MEAN_ANOMALY":289.3473,"EPHEMERIS_TYPE":0,"CLASSIFICATION_TYPE":"U","NORAD_CAT_ID":50499,"ELEMENT_SET_NO":999,"REV_AT_EPOCH":20989,"BSTAR":-2.017987e-5,"MEAN_MOTION_DOT":5.0e-8,"MEAN_MOTION_DDOT":0},{"OBJECT_NAME":"ONEWEB-0429","OBJECT_ID":"2021-132AH","EPOCH":"2026-03-20T06:13:55.416288","MEAN_MOTION":13.1868663,"ECCENTRICITY":0.00019317,"INCLINATION":87.9245,"RA_OF_ASC_NODE":353.1299,"ARG_OF_PERICENTER":81.2541,"MEAN_ANOMALY":278.881,"EPHEMERIS_TYPE":0,"CLASSIFICATION_TYPE":"U","NORAD_CAT_ID":50500,"ELEMENT_SET_NO":999,"REV_AT_EPOCH":20986,"BSTAR":-0.00017287234,"MEAN_MOTION_DOT":-5.5e-7,"MEAN_MOTION_DDOT":0},{"OBJECT_NAME":"ONEWEB-0430","OBJECT_ID":"2021-132AJ","EPOCH":"2026-03-20T04:08:01.504032","MEAN_MOTION":13.18684969,"ECCENTRICITY":0.00020505,"INCLINATION":87.9251,"RA_OF_ASC_NODE":353.1448,"ARG_OF_PERICENTER":77.3211,"MEAN_ANOMALY":282.8151,"EPHEMERIS_TYPE":0,"CLASSIFICATION_TYPE":"U","NORAD_CAT_ID":50501,"ELEMENT_SET_NO":999,"REV_AT_EPOCH":20989,"BSTAR":0.00012945401,"MEAN_MOTION_DOT":6.4e-7,"MEAN_MOTION_DDOT":0},{"OBJECT_NAME":"ONEWEB-0432","OBJECT_ID":"2021-132AK","EPOCH":"2026-03-20T06:45:34.823520","MEAN_MOTION":13.18645639,"ECCENTRICITY":0.00020082,"INCLINATION":87.9249,"RA_OF_ASC_NODE":353.0922,"ARG_OF_PERICENTER":57.2498,"MEAN_ANOMALY":302.8827,"EPHEMERIS_TYPE":0,"CLASSIFICATION_TYPE":"U","NORAD_CAT_ID":50502,"ELEMENT_SET_NO":999,"REV_AT_EPOCH":20986,"BSTAR":8.4467421e-5,"MEAN_MOTION_DOT":4.6e-7,"MEAN_MOTION_DDOT":0},{"OBJECT_NAME":"ONEWEB-0440","OBJECT_ID":"2021-132AL","EPOCH":"2026-03-20T06:25:47.925120","MEAN_MOTION":13.18686749,"ECCENTRICITY":0.00017414,"INCLINATION":87.9254,"RA_OF_ASC_NODE":353.1156,"ARG_OF_PERICENTER":91.361,"MEAN_ANOMALY":268.7722,"EPHEMERIS_TYPE":0,"CLASSIFICATION_TYPE":"U","NORAD_CAT_ID":50503,"ELEMENT_SET_NO":999,"REV_AT_EPOCH":20985,"BSTAR":9.3337996e-5,"MEAN_MOTION_DOT":5.0e-7,"MEAN_MOTION_DDOT":0},{"OBJECT_NAME":"ONEWEB-0450","OBJECT_ID":"2021-132AM","EPOCH":"2026-03-20T06:16:29.802720","MEAN_MOTION":13.18686636,"ECCENTRICITY":0.00020537,"INCLINATION":87.9243,"RA_OF_ASC_NODE":353.1312,"ARG_OF_PERICENTER":82.5991,"MEAN_ANOMALY":277.5375,"EPHEMERIS_TYPE":0,"CLASSIFICATION_TYPE":"U","NORAD_CAT_ID":50504,"ELEMENT_SET_NO":999,"REV_AT_EPOCH":20988,"BSTAR":0.0001250268,"MEAN_MOTION_DOT":6.2e-7,"MEAN_MOTION_DDOT":0},{"OBJECT_NAME":"ONEWEB-0410","OBJECT_ID":"2022-012A","EPOCH":"2026-03-19T21:59:32.714304","MEAN_MOTION":13.17650221,"ECCENTRICITY":0.00011,"INCLINATION":87.9176,"RA_OF_ASC_NODE":23.5749,"ARG_OF_PERICENTER":31.3006,"MEAN_ANOMALY":328.8191,"EPHEMERIS_TYPE":0,"CLASSIFICATION_TYPE":"U","NORAD_CAT_ID":51622,"ELEMENT_SET_NO":999,"REV_AT_EPOCH":20194,"BSTAR":-0.0001016,"MEAN_MOTION_DOT":-2.7e-7,"MEAN_MOTION_DDOT":0},{"OBJECT_NAME":"ONEWEB-0411","OBJECT_ID":"2022-012B","EPOCH":"2026-03-19T23:31:26.316480","MEAN_MOTION":13.10375651,"ECCENTRICITY":0.00024565,"INCLINATION":87.8797,"RA_OF_ASC_NODE":54.0185,"ARG_OF_PERICENTER":80.823,"MEAN_ANOMALY":279.3175,"EPHEMERIS_TYPE":0,"CLASSIFICATION_TYPE":"U","NORAD_CAT_ID":51623,"ELEMENT_SET_NO":999,"REV_AT_EPOCH":19760,"BSTAR":0.0008819995,"MEAN_MOTION_DOT":3.21e-6,"MEAN_MOTION_DDOT":0},{"OBJECT_NAME":"ONEWEB-0415","OBJECT_ID":"2022-012C","EPOCH":"2026-03-20T06:46:28.134912","MEAN_MOTION":13.10375427,"ECCENTRICITY":0.00021498,"INCLINATION":87.8796,"RA_OF_ASC_NODE":53.961,"ARG_OF_PERICENTER":79.9261,"MEAN_ANOMALY":280.2109,"EPHEMERIS_TYPE":0,"CLASSIFICATION_TYPE":"U","NORAD_CAT_ID":51624,"ELEMENT_SET_NO":999,"REV_AT_EPOCH":19764,"BSTAR":0.0002210051,"MEAN_MOTION_DOT":9.0e-7,"MEAN_MOTION_DDOT":0},{"OBJECT_NAME":"ONEWEB-0416","OBJECT_ID":"2022-012D","EPOCH":"2026-03-19T23:43:23.884032","MEAN_MOTION":13.10373908,"ECCENTRICITY":0.00021361,"INCLINATION":87.8789,"RA_OF_ASC_NODE":54.0405,"ARG_OF_PERICENTER":71.6122,"MEAN_ANOMALY":288.5238,"EPHEMERIS_TYPE":0,"CLASSIFICATION_TYPE":"U","NORAD_CAT_ID":51625,"ELEMENT_SET_NO":999,"REV_AT_EPOCH":19764,"BSTAR":0.001634167,"MEAN_MOTION_DOT":5.83e-6,"MEAN_MOTION_DDOT":0},{"OBJECT_NAME":"ONEWEB-0422","OBJECT_ID":"2022-012E","EPOCH":"2026-03-20T05:31:31.357920","MEAN_MOTION":13.17649573,"ECCENTRICITY":0.00021589,"INCLINATION":87.9176,"RA_OF_ASC_NODE":23.5159,"ARG_OF_PERICENTER":96.4744,"MEAN_ANOMALY":263.6633,"EPHEMERIS_TYPE":0,"CLASSIFICATION_TYPE":"U","NORAD_CAT_ID":51626,"ELEMENT_SET_NO":999,"REV_AT_EPOCH":20209,"BSTAR":9.8858078e-5,"MEAN_MOTION_DOT":5.1e-7,"MEAN_MOTION_DDOT":0},{"OBJECT_NAME":"ONEWEB-0423","OBJECT_ID":"2022-012F","EPOCH":"2026-03-19T20:15:03.297024","MEAN_MOTION":13.1764889,"ECCENTRICITY":0.00018203,"INCLINATION":87.9175,"RA_OF_ASC_NODE":23.6013,"ARG_OF_PERICENTER":82.6211,"MEAN_ANOMALY":277.5127,"EPHEMERIS_TYPE":0,"CLASSIFICATION_TYPE":"U","NORAD_CAT_ID":51627,"ELEMENT_SET_NO":999,"REV_AT_EPOCH":20193,"BSTAR":-4.9687253e-5,"MEAN_MOTION_DOT":-6.0e-8,"MEAN_MOTION_DDOT":0},{"OBJECT_NAME":"ONEWEB-0425","OBJECT_ID":"2022-012G","EPOCH":"2026-03-19T23:57:44.205120","MEAN_MOTION":13.10371561,"ECCENTRICITY":0.00015658,"INCLINATION":87.8799,"RA_OF_ASC_NODE":54.0167,"ARG_OF_PERICENTER":79.9949,"MEAN_ANOMALY":280.1355,"EPHEMERIS_TYPE":0,"CLASSIFICATION_TYPE":"U","NORAD_CAT_ID":51628,"ELEMENT_SET_NO":999,"REV_AT_EPOCH":19764,"BSTAR":0.0015387104,"MEAN_MOTION_DOT":5.5e-6,"MEAN_MOTION_DDOT":0},{"OBJECT_NAME":"ONEWEB-0428","OBJECT_ID":"2022-012H","EPOCH":"2026-03-20T06:48:51.843168","MEAN_MOTION":13.10374392,"ECCENTRICITY":0.00018804,"INCLINATION":87.8796,"RA_OF_ASC_NODE":53.972,"ARG_OF_PERICENTER":84.8901,"MEAN_ANOMALY":275.2441,"EPHEMERIS_TYPE":0,"CLASSIFICATION_TYPE":"U","NORAD_CAT_ID":51629,"ELEMENT_SET_NO":999,"REV_AT_EPOCH":19764,"BSTAR":0.00026186485,"MEAN_MOTION_DOT":1.04e-6,"MEAN_MOTION_DDOT":0}]
