ONEWEB-0421             
1 50496U 21132AD  26079.16234948  .00000074  00000+0  15600-3 0  9999
2 50496  87.9251 353.1429 0001553  83.8881 276.2428 13.18686402209882
ONEWEB-0424             
1 50497U 21132AE  26079.27451332  .00000037  00000+0  60664-4 0  9990
2 50497  87.9251 353.1168 0002036  70.7101 289.4251 13.18687119209921
ONEWEB-0426             
1 50498U 21132AF  26079.23491319  .00000067  00000+0  13708-3 0  9995
2 50498  87.9253 353.1165 0001089  74.9929 285.1324 13.18685259209862
ONEWEB-0427             
1 50499U 21132AG  26079.27285057  .00000005  00000+0 -20180-4 0  9996
2 50499  87.9253 353.0957 0001630  70.7836 289.3473 13.18685659209892
ONEWEB-0429             
1 50500U 21132AH  26079.25966917 -.00000055  00000+0 -17287-3 0  9997
2 50500  87.9245 353.1299 0001931  81.2541 278.8810 13.18686630209865
ONEWEB-0430             
1 50501U 21132AJ  26079.17223963  .00000064  00000+0  12945-3 0  9990
2 50501  87.9251 353.1448 0002050  77.3211 282.8151 13.18684969209891
ONEWEB-0432             
1 50502U 21132AK  26079.28165305  .00000046  00000+0  84467-4 0  9997
2 50502  87.9249 353.0922 0002008  57.2498 302.8827 13.18645639209863
ONEWEB-0440             
1 50503U 21132AL  26079.26791580  .00000050  00000+0  93338-4 0  9998
2 50503  87.9254 353.1156 0001741  91.3610 268.7722 13.18686749209858
ONEWEB-0450             
1 50504U 21132AM  26079.26145605  .00000062  00000+0  12503-3 0  9997
2 50504  87.9243 353.1312 0002053  82.5991 277.5375 13.18686636209882
ONEWEB-0410             
1 51622U 22012A   26078.91635086 -.00000027  00000+0 -10160-3 0  9995
2 51622  87.9176  23.5749 0001100  31.3006 328.8191 13.17650221201947
ONEWEB-0411             
1 51623U 22012B   26078.98016570  .00000321  00000+0  88200-3 0  9999
2 51623  87.8797  54.0185 0002456  80.8230 279.3175 13.10375651197605
ONEWEB-0415             
1 51624U 22012C   26079.28227008  .00000090  00000+0  22101-3 0  9995
2 51624  87.8796  53.9610 0002149  79.9261 280.2109 13.10375427197641
ONEWEB-0416             
1 51625U 22012D   26078.98847088  .00000583  00000+0  16342-2 0  9994
2 51625  87.8789  54.0405 0002136  71.6122 288.5238 13.10373908197645
ONEWEB-0422             
1 51626U 22012E   26079.23022405  .00000051  00000+0  98858-4 0  9996
2 51626  87.9176  23.5159 0002158  96.4744 263.6633 13.17649573202093
ONEWEB-0423             
1 51627U 22012F   26078.84378816 -.00000006  00000+0 -49687-4 0  9991
2 51627  87.9175  23.6013 0001820  82.6211 277.5127 13.17648890201939
ONEWEB-0425             
1 51628U 22012G   26078.99842830  .00000550  00000+0  15387-2 0  9990
2 51628  87.8799  54.0167 0001565  79.9949 280.1355 13.10371561197648
ONEWEB-0428             
1 51629U 22012H   26079.28393337  .00000104  00000+0  26186-3 0  9992
2 51629  87.8796  53.9720 0001880  84.8901 275.2441 13.10374392197648
